48976,ONEWEB-0258,2021,109.37,148.0,+,87.91,Active,1,LEO,Russia,UK,Commercial,Communications,Soyuz,1 48976U 21060K   25054.17151464  .00000137  00000+0  32434-3 0  9997,2 48976  87.9122 324.2694 0001799  76.0843 284.0488 13.16593639177846,13.16593639,0.0001799,LEO
48977,ONEWEB-0259,2021,109.37,148.0,+,87.91,Active,1,LEO,Russia,UK,Commercial,Communications,Soyuz,1 48977U 21060L   25054.77315321  .00000009  00000+0 -10236-4 0  9994,2 48977  87.9121 324.1343 0001970  74.8502 285.2847 13.16594228177965,13.16594228,0.000197,LEO
48978,ONEWEB-0260,2021,109.37,148.0,+,87.91,Active,1,LEO,Russia,UK,Commercial,Communications,Soyuz,1 48978U 21060M   25054.15646263 -.00000034  00000+0 -12177-3 0  9993,2 48978  87.9121 324.2864 0001556  96.1498 263.9810 13.16594344177856,13.16594344,0.0001556,LEO
48979,ONEWEB-0261,2021,109.37,148.0,+,87.91,Active,1,LEO,Russia,UK,Commercial,Communications,Soyuz,1 48979U 21060N   25054.27838966  .00000035  00000+0  59248-4 0  9990,2 48979  87.9126 324.2625 0002094  89.2517 270.8854 13.16595127177945,13.16595127,0.0002094,LEO
48980,ONEWEB-0262,2021,109.37,148.0,+,87.91,Active,1,LEO,Russia,UK,Commercial,Communications,Soyuz,1 48980U 21060P   25054.18260060  .00000118  00000+0  27431-3 0  9996,2 48980  87.9121 324.2386 0001959  72.3097 287.8248 13.16594891177897,13.16594891,0.0001959,LEO
48981,ONEWEB-0263,2021,109.37,148.0,+,87.91,Active,1,LEO,Russia,UK,Commercial,Communications,Soyuz,1 48981U 21060Q   25054.74624368  .00000135  00000+0  31872-3 0  9997,2 48981  87.9127 324.1509 0002140  81.3702 278.7671 13.16593819177939,13.16593819,0.000214,LEO
48982,ONEWEB-0264,2021,109.37,148.0,+,87.91,Active,1,LEO,Russia,UK,Commercial,Communications,Soyuz,1 48982U 21060R   25054.17547627  .00000092  00000+0  20747-3 0  9998,2 48982  87.9124 324.2733 0001790  79.6021 280.5312 13.16593900177856,13.165939,0.000179,LEO
48984,ONEWEB-0266,2021,109.37,148.0,+,87.91,Active,1,LEO,Russia,UK,Commercial,Communications,Soyuz,1 48984U 21060T   25054.19684259  .00000145  00000+0  34549-3 0  9999,2 48984  87.9122 324.2404 0001775  72.2024 287.9300 13.16594235177856,13.16594235,0.0001775,LEO
